NUSAT-50 (NANCY ROMAN)  
1 60493U 24149AB  26068.80227738  .00012094  00000+0  42252-3 0  9994
2 60493  97.3817 150.7693 0002523 238.0469 122.0527 15.29713355 86930
STARLINK-34625          
1 66154U 25240J   26068.27510877  .00028369  00000+0  96644-3 0  9993
2 66154  53.1590  64.8322 0001149  73.3592 286.7535 15.30195583 21971
